ONEWEB-0574             
1 56063U 23043T   24079.92963237  .00000106  00000+0  22412-3 0  9995
2 56063  87.9255  47.0320 0001816  85.6545 274.4797 13.21828131 50952
ONEWEB-0575             
1 56064U 23043U   24079.90938237  .00000021  00000+0  21296-4 0  9992
2 56064  87.9119  31.8205 0002509  80.3271 279.8143 13.16593420 52076
ONEWEB-0576             
1 56065U 23043V   24079.89038534 -.00000074  00000+0 -22807-3 0  9990
2 56065  87.9117  31.8236 0002254  88.4819 271.6570 13.16594181 52061
ONEWEB-0577             
1 56066U 23043W   24079.89671810 -.00000051  00000+0 -16721-3 0  9994
2 56066  87.9116  31.8214 0002811  78.3591 281.7855 13.16594225 52091
ONEWEB-0578             
1 56067U 23043X   24079.99272761  .00000083  00000+0  17008-3 0  9990
2 56067  87.9260  47.0147 0001974  89.6384 270.4977 13.21827200 50928
ONEWEB-0579             
1 56068U 23043Y   24079.90756344  .00000054  00000+0  99712-4 0  9997
2 56068  87.9256  47.0320 0001877  70.1688 289.9648 13.21824202 50920
ONEWEB-0609             
1 56070U 23043AA  24079.97027399 -.00000050  00000+0 -16694-3 0  9993
2 56070  87.8973  62.2463 0001824  88.6000 271.5340 13.15549571 49637
